NAVSTAR 77 (USA 289)    
1 43873U 18109A   24151.90146086  .00000074  00000+0  00000+0 0  9990
2 43873  55.2913 121.7111 0028971 195.7848 352.9157  2.00555036 40085
